SupplierID,SupplierName,Phone,City,Country
1,Skidoo,4156384681,San Francisco,United States
2,Topiczoom,3009886888,Perth,Australia
3,Oyoyo,8269071752,Ouangani,Mayotte
4,Quimba,2465159995,Banocboc,Philippines
5,Jabbertype,6582597803,Boychinovtsi,Bulgaria
6,Flashpoint,8179189502,San Carlos,Argentina
7,Quaxo,8024921865,Gembu,Nigeria
8,Thoughtbeat,1635592413,Norrköping,Sweden
9,Feednation,2704717010,Paico,Peru
10,Gabspot,3994219133,Descalvado,Brazil
11,Demivee,4598874171,Saint Hubert,Mauritius
12,Photofeed,6778179678,Longjin,China
13,Yakijo,8442038065,Kayan Hulu,Indonesia
14,Topicshots,6484538611,Wudan,China
15,Jabbersphere,7301517828,Voskresenskoye,Russia
16,Edgetag,8668861220,Liurenba,China
17,Feedspan,8538160341,Stockholm,Sweden
18,Fanoodle,9381985134,Fengyan,China
19,Twitterworks,8511460372,General Pico,Argentina
20,LiveZ,7491392599,Romba,Indonesia
21,Skiba,4956508911,Mora,Sweden
22,Wordify,6143688263,Morong,Philippines
23,Yoveo,3025754847,Portëz,Albania
24,Skinix,3739584606,Petit Raffray,Mauritius
25,Pixope,3558601097,Popova,Russia
26,Yodo,9169194728,Fika,Nigeria
27,Agimba,6233601147,Forshaga,Sweden
28,Oyoyo,2198348821,Mao,Dominican Republic
29,Blogtag,8104230443,Shangqing,China
30,Browsedrive,5522807157,La Cocha,Argentina
31,Browsezoom,2067645686,Milwaukee,United States
32,Eamia,4097819194,Johor Bahru,Malaysia
33,Minyx,4698123942,Eaton,United Kingdom
34,Skiba,2566584934,Kolpny,Russia
35,Oyoloo,3432015108,Yataity del Norte,Paraguay
36,Shuffledrive,4397957365,Jingzhou,China
37,Twimbo,9205349905,Lodhran,Pakistan
38,Oozz,2229039603,Vista Hermosa,Mexico
39,Oodoo,9528325193,Piraí do Sul,Brazil
40,Youspan,5406721671,El Charco,Colombia
41,Lazzy,7025286399,Shimanovsk,Russia
42,Thoughtworks,4923656336,Freiburg im Breisgau,Germany
43,Meevee,1774732252,Sevlievo,Bulgaria
44,Browsezoom,3972805651,Energeticheskiy,Kazakhstan
45,Yodel,4244397992,Chaoshui,China
46,Zoonder,7802970485,Al Mayadin,Syria
47,Twinte,2201875009,Unicov,Czech Republic
48,Riffwire,5439319599,Lanyang,China
49,Skajo,1622897546,Bonneville,France
50,Skiptube,2925440860,Wulijie,China
51,Fatz,1501603657,Limassol,Cyprus
52,LiveZ,4104025187,Fuzhiping,China
53,Janyx,1787561054,Pingyin,China
54,Skiba,6607941705,Ciranca,Indonesia
55,Brightdog,2637898491,Bauru,Brazil
56,Gabcube,1673878875,Lowayu,Indonesia
57,Zoombeat,8248541435,Kinnula,Finland
58,Skipstorm,1705696726,Davydovo,Russia
59,Youopia,1502013122,Luojiaping,China
60,Quimm,6243816121,Daba,China
61,Skilith,3733519804,Freire,Chile
62,Bubblebox,7995561444,Malapaubhara,Indonesia
63,Midel,5823305085,Concepcion,Philippines
64,Zooxo,5534858361,Higashimurayama-shi,Japan
65,Edgetag,5525704899,Sut-Khol’,Russia
66,Photofeed,5271836724,Lundo,Indonesia
67,Meejo,7103101821,Kalmar,Sweden
68,Kamba,2253913857,Viamão,Brazil
69,Innojam,5074673656,Cilangkap,Indonesia
70,Oozz,9054365700,Swift Current,Canada
71,Twinder,4711229626,Dong’an,China
72,Snaptags,2001333067,Suzuka,Japan
73,Divavu,1202398445,Varva,Ukraine
74,Eamia,1322525445,Baryshivka,Ukraine
75,Muxo,4238377789,Zhougao,China
76,Wordify,1529943676,Simuay,Philippines
77,Tazzy,6787216484,Aksha,Russia
78,Skimia,7159815519,Nivnice,Czech Republic
79,Divavu,4336665028,Toutosa,Portugal
80,Yacero,6811076483,Noebesa,Indonesia
81,Innotype,3981770737,Lajarik,Indonesia
82,Youfeed,1387283747,Xinjian,China
83,JumpXS,3851421923,Arazane,Morocco
84,Tagtune,3878670258,Siepraw,Poland
85,Kazio,3318766453,Zevenaar,Netherlands
86,Browsebug,9448046929,Jadowniki,Poland
87,Eazzy,3245697876,Puerto Rico,Argentina
88,Skalith,7616936652,???????,Macedonia
89,Eabox,6626342493,Takanini,New Zealand
90,Zooxo,4377570349,Hotaka,Japan
91,Izio,4651654743,Cahabón,Guatemala
92,Trudeo,4526396573,Gouveia,Portugal
93,Jamia,6075715491,Ndendé,Gabon
94,Twinder,6804096881,Siparia,Trinidad and Tobago
95,Ainyx,3229615072,Cáchira,Colombia
96,Lajo,1731271822,Ganlin,China
97,Trunyx,9237055881,Kacanik,Kosovo
98,Zoombox,7242886357,Debrecen,Hungary
99,Gabtune,9158176279,El Paso,United States
100,Devbug,5827009112,Ligang,China
101,Snaptags,4218159859,Binkolo,Sierra Leone
102,Trilia,7269702285,Palaífyto,Greece
103,Reallinks,2479734547,Pueblo Nuevo,Panama
104,Voomm,8446673984,Najin,North Korea
105,Tagcat,2845520763,Manga,Burkina Faso
106,Twitterworks,5404820354,Sidi Amar,Morocco
107,Tazzy,5712242112,Olmos,Peru
108,Tagfeed,6603509207,Hienghène,New Caledonia
109,Fatz,8995189448,Srpska Crnja,Serbia
110,Edgetag,6802470018,Heemskerk,Netherlands
111,Shufflester,2651825539,Sîngerei,Moldova
112,Yombu,9696861040,Navan,Ireland
113,Vidoo,5207392115,Sahatsakhan,Thailand
114,Photojam,2646487981,Buka,Uzbekistan
115,Snaptags,8106714945,Palaióchora,Greece
116,Skinder,3586789882,San Isidro,Mexico
117,Voomm,1286456127,Gatbo,Philippines
118,Thoughtbridge,9937538724,Balud,Philippines
119,Kare,6658068905,Yotsukaido,Japan
120,DabZ,1616089445,Zykovo,Russia
121,Viva,7816750538,Springfield,United States
122,Edgeblab,6323038037,Heshi,China
123,Zoomdog,8404067056,Huaikan,China
124,Thoughtblab,2373198637,Linjiang,China
125,Kwinu,8657166908,Mineralnye Vody,Russia
126,Ntag,4256533324,Orahovac,Kosovo
127,Jabberbean,9705508604,Kargowa,Poland
128,Ainyx,7914006583,Guernica,Argentina
129,Skyndu,1011576153,Horad Rechytsa,Belarus
130,Npath,5309718207,Horta,Portugal
131,Riffwire,9546283450,Bishkek,Kyrgyzstan
132,Jabbertype,1083709854,Shuangwang,China
133,Dynabox,1372590406,Caijiagang,China
134,Gigashots,5667959453,Kosmach,Ukraine
135,Trudoo,8151092372,Nan,Thailand
136,Jaxworks,1914427610,San Juan,Philippines
137,Dynabox,8105285987,Rosaspata,Peru
138,Tazz,4809950269,Rashaant,Mongolia
139,Realpoint,2779078605,Rukungiri,Uganda
140,Riffwire,4407346580,St. Anton an der Jeßnitz,Austria
141,Podcat,9015287228,Voi,Kenya
142,Jayo,3632211700,Grebnevo,Russia
143,Demizz,7078651725,Ozherel’ye,Russia
144,Shufflebeat,3102078469,Shikhazany,Russia
145,Teklist,8232421611,Slobodnica,Croatia
146,Babbleset,2444463835,Santa Cruz,Philippines
147,Oodoo,1099777116,Göteborg,Sweden
148,Gabvine,3409486866,Pulap,Micronesia
149,Riffpath,9937794731,Clarin,Philippines
150,Eabox,7188129798,Bronx,United States
151,Quaxo,1767520809,Noisy-le-Grand,France
152,BlogXS,7575252536,Sutton,Ireland
153,Yotz,7632741766,Sulbiny Górne,Poland
154,Camimbo,9655273012,Pilcuyo,Peru
155,Realbuzz,4645448958,Labrang,China
156,Tazzy,5975653974,New Glasgow,Canada
157,Voomm,1044615605,Roma,Italy
158,Kwideo,9157507387,Markaz-e Woluswali-ye Achin,Afghanistan
159,Dabtype,5608724643,Hadabei,China
160,Jaloo,8094932727,Voyutychi,Ukraine
161,Camimbo,8346255537,Petaling Jaya,Malaysia
162,Feedbug,3689522546,Dulyapino,Russia
163,Skimia,8881762771,Gapyeong,South Korea
164,Zazio,6815381886,Mouriscas,Portugal
165,Edgeclub,1872020845,Shuyuan,China
166,Skyndu,6186932753,Xike,China
167,Kanoodle,5799953650,Ozamiz City,Philippines
168,Yodo,9642104080,Tokar,Sudan
169,Voomm,6408514744,Dowr-e Rabat,Afghanistan
170,Riffpath,2259253920,Jurovski Dol,Slovenia
171,Brightbean,6051469905,Radziszów,Poland
172,Pixoboo,8276483050,Längelmäki,Finland
173,Innotype,2458211173,Alilem,Philippines
174,Riffpedia,2628590054,Acobamba,Peru
175,Minyx,3185050421,Alabug,Philippines
176,Skilith,4469885337,Wislica,Poland
177,Jayo,6688078641,Gaoqiao,China
178,Eare,5917821869,Ayorou,Niger
179,Aimbo,1092761629,Batarasa,Philippines
180,Skyndu,8011496218,Zuoxi,China
181,Jabbersphere,6816994499,Ashkasham,Afghanistan
182,Rhybox,7953734698,La Palma,Panama
183,Innotype,8027287269,Tashla,Russia
184,Kayveo,2718555370,Chernyshevsk,Russia
185,Twimm,7119606712,Västerås,Sweden
186,Skynoodle,6363186433,Shinpokh,Pakistan
187,Mymm,9052742791,Ngancar,Indonesia
188,Buzzshare,6849125405,Dingjiayao,China
189,Geba,7644438551,Limoeiro do Norte,Brazil
190,Jaxspan,1318291267,Wiskitki,Poland
191,Kazio,8495829272,Palykavichy Pyershyya,Belarus
192,Kazu,2796313255,Sabang,Philippines
193,Voonder,8003678501,Zinder,Niger
194,Trudeo,3321309609,Garešnica,Croatia
195,Twimm,2913006696,Shimen,China
196,Feedspan,6557624803,Cacak,Serbia
197,Jaxnation,9937197807,Hengxizhen,China
198,Zoovu,7061388742,Firmat,Argentina
199,Tagcat,7472715233,Oskarshamn,Sweden
200,Tekfly,1358094345,Örnsköldsvik,Sweden
201,Rhycero,7399855081,Mallawi,Egypt
202,Skaboo,4025781021,Kwolla,Nigeria
203,Aimbo,5673435839,Mazowe,Zimbabwe
204,Dynazzy,5226885157,Caen,France
205,Dynabox,2693299039,Kalidawir,Indonesia
206,Yacero,2725245586,Hanyu,Japan
207,Layo,8164442729,Lees Summit,United States
208,Quatz,2474119286,Paso de Indios,Argentina
209,Ntags,8169183641,Horokhiv,Ukraine
210,Topiclounge,6775489232,Marechal Deodoro,Brazil
211,Jayo,9115509729,Roldanillo,Colombia
212,Podcat,4997166824,Shengci,China
213,Kwimbee,3041586284,Sicaya,Peru
214,Zava,4967504730,Zhuting,China
215,Yoveo,5346127211,Quartier Militaire,Mauritius
216,Jetwire,5699860664,Halmstad,Sweden
217,Fanoodle,6297017985,Oleszyce,Poland
218,Twitterbeat,9007489173,Kushima,Japan
219,Realblab,1575714758,Regente Feijó,Brazil
220,Browseblab,3691181905,Chitungwiza,Zimbabwe
221,Mita,9909828195,Zhongshan,China
222,Youspan,7635735186,Velventós,Greece
223,Skimia,4312029049,La?ij,Yemen
224,Skivee,8529766791,Lac La Biche,Canada
225,Jaxspan,9175330870,København,Denmark
226,Dynazzy,2144426072,Lengkongbarang,Indonesia
227,Riffwire,6804800314,La Mohammedia,Tunisia
228,Kamba,3098488722,Caetité,Brazil
229,Fivechat,8507046882,Cergy-Pontoise,France
230,Bubblemix,8749064828,Cuihuangkou,China
231,Yata,4011968691,Longsheng,China
232,Kazu,5011215980,Tolbazy,Russia
233,Edgeblab,5762028621,Santa Cruz del Norte,Cuba
234,Edgeify,6066215300,Huambo,Angola
235,Zoomdog,7029602313,Santol,Philippines
236,Skyndu,6586553930,Plasy,Czech Republic
237,Skaboo,6509884381,Boyuibe,Bolivia
238,Jabbercube,5422009567,Kuanping,China
239,Bluejam,4256939454,Arkhaía Kórinthos,Greece
240,Agivu,9203284385,Priiskovyy,Russia
241,Dazzlesphere,1546293700,Fey?abad,Iran
242,Skimia,1653733378,Taklisah,Tunisia
243,Yoveo,6016933435,Bosanski Šamac,Bosnia and Herzegovina
244,Camido,2034658000,Qingfa,China
245,Dabtype,1064811443,Thayetmyo,Myanmar
246,Blognation,2672487873,Lagyná,Greece
247,Flipopia,7184735761,Brikama Nding,Gambia
248,Meeveo,8158511331,Toktogul,Kyrgyzstan
249,Dazzlesphere,7989356251,Daping,China
250,Dynabox,5226883043,Bel Air Rivière Sèche,Mauritius
251,Wikibox,5165788306,Panognawan,Philippines
252,Dablist,2772392656,Soufrière,Dominica
253,Mynte,2012873417,Sheshan,China
254,Skimia,4979896653,Horta,Portugal
255,Shuffletag,7631258365,Thung Khru,Thailand
256,Brightdog,7089248083,Burevestnik,Russia
257,Jazzy,1709946691,Longjumeau,France
258,Dabfeed,8435630611,Phichit,Thailand
259,Teklist,8542836556,Göteborg,Sweden
260,Kare,1604595665,Gore,Ethiopia
261,Devpulse,3103414702,Las Sabanas,Nicaragua
262,Thoughtmix,9515447263,Ipauçu,Brazil
263,Voolith,1701151099,Dake,China
264,Shuffletag,9786688723,Taganskiy,Russia
265,Twimm,9426451774,Vukovar,Croatia
266,Voonder,7325925076,Zhongnan,China
267,Tagcat,5038652207,Porvenir,Uruguay
268,Kwilith,2634348995,Kitwe,Zambia
269,Aimbo,6481271328,Jixian,China
270,Quimm,6619990542,Mabalacat,Philippines
271,Dynazzy,4877625215,Baizhu,China
272,Flashspan,9269215377,Nor Gyugh,Armenia
273,Mydo,1385748560,Corinto,Brazil
274,Topiclounge,5517633525,Hexi,China
275,Yakitri,2013795078,Kanaya,Japan
276,Trunyx,9419820128,Chernoyerkovskaya,Russia
277,Fanoodle,7141632946,Purvomaytsi,Bulgaria
278,Edgewire,3241908731,Changkeng,China
279,Dabvine,5982244899,Kuala Lumpur,Malaysia
280,Katz,8502016605,Pensacola,United States
281,Twitterbridge,2311904615,Shuidong,China
282,Yakidoo,5858728615,Satipo,Peru
283,Yodo,2726138846,Loudi,China
284,Oloo,3304592389,Hepu,China
285,Mybuzz,3268889569,Jacaltenango,Guatemala
286,Linktype,3181412679,Ciudian,Indonesia
287,Ailane,8287391636,Dashiqiao,China
288,Vidoo,9717014841,Jacinto Arauz,Argentina
289,Quaxo,8241197519,Resapombo,Indonesia
290,Thoughtworks,6787513622,Atlanta,United States
291,Realmix,8729392026,Can-asujan,Philippines
292,Topicware,7638059404,Buenavista,Mexico
293,Twinte,4291211918,Sayansk,Russia
294,Meeveo,9014561095,Khandagayty,Russia
295,Jayo,5494431656,La Carlota,Philippines
296,Quaxo,4169278128,Longgao,China
297,Tekfly,1126942943,Itaqui,Brazil
298,Gigabox,5663654808,Cervené Pecky,Czech Republic
299,Brainsphere,5538385646,Áno Kalentíni,Greece
300,Aimbu,7517562474,Duowa,China
301,Wordtune,3635046905,Korotych,Ukraine
302,Camimbo,8248834131,Golomunta,Indonesia
303,Zoombox,5417624174,Vanadzor,Armenia
304,Topicware,8607547072,Mapulo,Philippines
305,Dabvine,6059374404,Summerside,Canada
306,Kanoodle,3031260068,Denver,United States
307,Rhynyx,6528349665,Tournon-sur-Rhône,France
308,Zoomzone,4313598085,Komorów,Poland
309,Pixope,2161120618,Finote Selam,Ethiopia
310,Buzzbean,3863549892,Daytona Beach,United States
311,Gabspot,9592638157,Chengxi,China
312,Eazzy,2741454387,Fiditi,Nigeria
313,Voonix,9943516782,Bitung,Indonesia
314,Skalith,1835391597,Guder Lao,Indonesia
315,Babblestorm,6719293078,Wabrzezno,Poland
316,Zooveo,3687161173,Bagiktinggang,Indonesia
317,Buzzbean,1999358613,Rzozów,Poland
318,Lazz,2117137778,Thomazeau,Haiti
319,Skyble,1989809992,Mkushi,Zambia
320,Fatz,4552860059,Bogoroditsk,Russia
321,Reallinks,9754959434,Even Yehuda,Israel
322,Linkbuzz,6441636118,Lianhua,China
323,Zoombeat,8227310060,Ozarów,Poland
324,Jayo,7049133343,Carpiquet,France
325,Brainsphere,8615987270,Lazy,Poland
326,Chatterbridge,6002031439,Oswiecim,Poland
327,Gigashots,6348145656,Igpit,Philippines
328,Buzzdog,6344753185,Youghal,Ireland
329,Leenti,4751055395,Chemerivtsi,Ukraine
330,Dabtype,3955565807,Calle Blancos,Costa Rica
331,Abata,8147394471,Yangjia,China
332,Zoovu,5348989450,Xiyang,China
333,Zoomzone,3604396436,Tabor,Slovenia
334,Meetz,6285317730,Brejo da Madre de Deus,Brazil
335,Skimia,2766796753,Jianfeng,China
336,Thoughtmix,8844525511,Echarate,Peru
337,Roodel,4305913352,El Pao,Venezuela
338,Avamm,3551698761,Zhigulevsk,Russia
339,Dazzlesphere,2012383035,Dresden,Germany
340,Jabberstorm,4488841234,Murmashi,Russia
341,Gabvine,5738778683,Hengjie,China
342,Rhynyx,5895924260,Zhongba,China
343,Teklist,9353238868,Tatsunocho-tominaga,Japan
344,Tambee,3131946655,Detroit,United States
345,Buzzbean,2361116345,Nianqiao,China
346,Zazio,4098036555,Harian,Indonesia
347,Myworks,6744794488,Xidoupu,China
348,Shufflester,3536407075,Kafr az Zayyat,Egypt
349,Photobug,1211002472,Odienné,Ivory Coast
350,Meembee,3276412164,Bagaces,Costa Rica
351,Pixope,7926787310,Khujand,Tajikistan
352,Quimba,8992386884,Hat Yai,Thailand
353,Jaxnation,3833835251,Mulhouse,France
354,Twitterbridge,4651387016,Ekibastuz,Kazakhstan
355,Blogspan,1447905114,Kauit,Philippines
356,Topicblab,1559722204,Zaozhuang,China
357,Oyoloo,7916422540,Corgo,Portugal
358,InnoZ,7313405304,Chendong,China
359,Tagopia,7192005029,Ogod,Philippines
360,Oloo,2365254261,Gendiwu,Indonesia
361,Topicstorm,9601483608,Bunder,Indonesia
362,Avamba,7342702327,Huari,Peru
363,Kare,8209933824,Huacapampa,Peru
364,Thoughtblab,2969119360,Gimbi,Ethiopia
365,Babbleblab,4012705211,Buenlag,Philippines
366,Skaboo,2357145883,Zhaojia,China
367,Blogspan,5183191521,Piastów,Poland
368,Babblestorm,6148669171,Izingolweni,South Africa
369,Skyvu,8461166927,Duri,Indonesia
370,Realmix,9723144665,Sanrao,China
371,Voolia,3389855633,Tuban,Philippines
372,Jaxworks,5842987349,Zuoxi,China
373,Kazio,9262014298,Kanashevo,Russia
374,Talane,9196889256,Zlotniki Kujawskie,Poland
375,Kwinu,1046660450,Maradi,Niger
376,Photolist,4535865894,Losevo,Russia
377,Dynava,9235693695,Maguwon,Indonesia
378,Dablist,5478620701,Perpignan,France
379,Realfire,4504225212,Gislaved,Sweden
380,Jamia,7436189095,Can-Avid,Philippines
381,JumpXS,1087001371,Manhuaçu,Brazil
382,Topiczoom,4936702040,Nanshan,China
383,Minyx,1488998329,Gasocin,Poland
384,Photolist,1861387364,Aktsyabrski,Belarus
385,Voolith,2938200582,San Teodoro,Philippines
386,Flipopia,3234422928,Mega,Ethiopia
387,Rhyloo,9391914356,Chervone,Ukraine
388,Devpulse,8455651208,Yangjinzhuang,China
389,Buzzster,7222194695,Övertorneå,Sweden
390,Zoomdog,7342530588,Moulay Yacoub,Morocco
391,Youspan,7965222531,Wudabao,China
392,Mita,4779859999,Prao,Vietnam
393,Jaxworks,1441510794,Jiling,China
394,Mydeo,9125843524,Weiyang,China
395,Zoombox,6979487873,Uscie Gorlickie,Poland
396,Kayveo,4872252794,Ostrówek,Poland
397,Edgeify,9212187456,Mszana Dolna,Poland
398,Jazzy,2839282182,Pervomays’k,Ukraine
399,Oyoloo,3415576865,Cubará,Colombia
400,Yombu,1426920387,Lijia,China
401,Meedoo,8115670580,Ouricuri,Brazil
402,Brainbox,3681630331,Mañazo,Peru
403,Bluezoom,2886570672,Megati Kelod,Indonesia
404,Realfire,5458263104,Lodygowice,Poland
405,Feedfire,1107870919,Omsk,Russia
406,Shufflester,3393593766,Tongli,China
407,Geba,6944686468,Gornje Moštre,Bosnia and Herzegovina
408,Eare,7978947954,Guihing Proper,Philippines
409,Linktype,2002584417,Dumbéa,New Caledonia
410,Realcube,2241352814,Ciudad Cortés,Costa Rica
411,Oyoba,6721410740,Karangmulya,Indonesia
412,Browsetype,2797075898,Sukorejo,Indonesia
413,Jaxworks,9704203119,Pukë,Albania
414,Jabbertype,9684580452,Cikiray,Indonesia
415,Lazzy,6172064876,Pandan,Philippines
416,Geba,2731467756,Kyjov,Czech Republic
417,Minyx,9334087064,Al Fuwayliq,Saudi Arabia
418,Meevee,8543649858,Tuburan,Philippines
419,Edgeblab,3137429924,Tegalgede,Indonesia
420,Eidel,4491631810,Medina Estates,Ghana
421,Pixoboo,3682036156,Donghai,China
422,Meevee,2526091771,Petrozavodsk,Russia
423,Gigabox,7132160886,Lisui,China
424,Skyble,4723379999,Farroupilha,Brazil
425,Skilith,7854670891,Yuyapichis,Peru
426,Topdrive,4075845458,Batusangkar,Indonesia
427,Livepath,2013448470,Candoso,Portugal
428,Wordtune,5065285211,København,Denmark
429,Tekfly,1155602742,Panshan,China
430,Edgewire,2646272663,Ingarö,Sweden
431,Geba,4713894823,Loudi,China
432,Tagopia,2495047087,Hnevotín,Czech Republic
433,Voolith,2423794617,Xianghe,China
434,Jetpulse,9049354665,Changkeng,China
435,Bluezoom,1965493120,Kímolos,Greece
436,Quatz,8479580030,Agaro,Ethiopia
437,Topicware,7605235718,Senhor do Bonfim,Brazil
438,Voomm,3879307130,Zafarwal,Pakistan
439,Minyx,5756811501,Pechenizhyn,Ukraine
440,Vipe,8963071142,Elói Mendes,Brazil
441,Ainyx,2025027014,Mandiana,Guinea
442,Quire,6794718878,Maba,China
443,Ailane,7859738776,Bykivka,Ukraine
444,Meevee,1784603616,Stockholm,Sweden
445,Zava,5867129557,Lalapanzi,Zimbabwe
446,Skyba,6076815885,Shigu,China
447,Thoughtbridge,9599393544,Shanxi,China
448,Oyoyo,2886897300,Glogówek,Poland
449,Twimbo,5793603910,Tilmi,Morocco
450,Tagtune,2845834512,Bantarjati,Indonesia
451,Skimia,4476287330,Th? Tr?n Than Uyên,Vietnam
452,Skajo,4745350050,Smithers,Canada
453,Yakidoo,5403788813,Nijmegen,Netherlands
454,Meejo,5021871470,Manhumirim,Brazil
455,Teklist,3036464444,Yên L?p,Vietnam
456,Livetube,4988399973,Cuenca,Ecuador
457,Janyx,9009564644,Peranap,Indonesia
458,Jetwire,2684497251,‘Amran,Yemen
459,Realfire,4273967594,Nova Odessa,Brazil
460,Browsedrive,4518091155,Ad Daw?ah,Palestinian Territory
461,Edgewire,2058698093,Zapala,Argentina
462,Wikizz,3133514169,Tyachiv,Ukraine
463,Thoughtstorm,9124599581,Huxi,China
464,Kaymbo,3124246069,Shuhe,China
465,Leexo,4412429943,Johanneshov,Sweden
466,Yata,9081232433,Dongjiao,China
467,Jaloo,4528983249,Khe Tre,Vietnam
468,Voomm,5193219692,Rancapanjang,Indonesia
469,Omba,9775048960,Wulipu,China
470,Talane,4556211739,Strachówka,Poland
471,Yozio,5218091347,Medenine,Tunisia
472,Meevee,8532923159,Binzhou,China
473,Feedspan,5578005635,Boavista,Portugal
474,Eabox,4277487210,Dapdapan,Philippines
475,Devshare,1293242735,Ribeira,Portugal
476,Twitterbridge,9346769417,Boavista,Portugal
477,Youopia,9434125448,Palaiomonástiron,Greece
478,Buzzster,5111484502,Chachoengsao,Thailand
479,Quinu,3424572862,Flic en Flac,Mauritius
480,Photospace,6793061932,Videira,Brazil
481,JumpXS,9543636744,Tuguanpu,China
482,Meeveo,7893126218,Xomong,China
483,Miboo,5866094235,Fiães,Portugal
484,Meedoo,5135109258,Guaratinguetá,Brazil
485,Youspan,2036681138,Hrtkovci,Serbia
486,Youtags,4877864669,Mulhouse,France
487,Blogspan,5752285072,Chashan,China
488,Skalith,7711293170,Malangabang,Philippines
489,Devify,6146500518,Columbus,United States
490,Aibox,6492212930,Glamang,Philippines
491,Kimia,8962650983,Ermelo,South Africa
492,Topdrive,3389397270,Wlosienica,Poland
493,Photobean,8538731837,Karangwungu Lor,Indonesia
494,Thoughtstorm,2082267769,Aksha,Russia
495,Wordify,9661219972,Zafarwal,Pakistan
496,Zoomzone,9607682869,Périgueux,France
497,Zoovu,3754808368,Cuilco,Guatemala
498,Realcube,5273780527,Záhorovice,Czech Republic
499,Tagchat,1426883114,Tyresö,Sweden
500,Gabcube,4668319392,Karlivka,Ukraine
501,Linktype,7146061457,Pasirgaru,Indonesia
502,Twitterwire,2239245116,Sredniy,Russia
503,Blogtags,2358368673,Phra Pradaeng,Thailand
504,BlogXS,5157632714,Demerval Lobão,Brazil
505,Miboo,1599482208,Briteiros Santa Leocádia,Portugal
506,Dazzlesphere,7153011192,Stegna,Poland
507,Quimm,4566977829,Pantukan,Philippines
508,Eazzy,1857859984,Mancagahar,Indonesia
509,Photolist,1095135731,Pokrovo-Prigorodnoye,Russia
510,Trilith,4183805830,Qu?n Nam,Vietnam
511,Jabberbean,6278619555,Qincheng,China
512,Katz,2057937386,Érd,Hungary
513,Bluejam,2605901108,Yong’an,China
514,Voonyx,1042509006,Bronnitsy,Russia
515,Talane,5222133124,Sangojar,Indonesia
516,Mita,5122683384,Várzea Paulista,Brazil
517,Devpoint,2859624463,Khenifra,Morocco
518,Yamia,6229301922,Khairpur,Pakistan
519,Demimbu,6666883951,Sihanoukville,Cambodia
520,Muxo,5612888875,Cihurip Satu,Indonesia
521,Fliptune,9357003814,Uberlândia,Brazil
522,BlogXS,2677747916,Philadelphia,United States
523,Bubbletube,3007850347,Shuitian,China
524,Eazzy,9823111371,Tatrang,China
525,Lazzy,9492223537,Santulhão,Portugal
526,Twitterworks,2064100770,Frederiksberg,Denmark
527,Photobug,5146848179,Ibicaraí,Brazil
528,Cogibox,3827503614,Banjar Jambe Baleran,Indonesia
529,Bluezoom,1997440744,Mizur,Russia
530,Dynabox,3537255016,Dve Mogili,Bulgaria
531,Einti,9671963845,Regla,Cuba
532,Vidoo,2132665204,Los Angeles,United States
533,Aimbu,3791504462,Abóboda,Portugal
534,Twitterlist,2524402367,Xinqiao,China
535,Tagpad,5694910149,Hostavice,Czech Republic
536,Realblab,1137119048,Hetoudian,China
537,Bluejam,3509918473,Ciranca,Indonesia
538,Oyope,9903057143,Teluksantong,Indonesia
539,Dabvine,8918834054,Abovyan,Armenia
540,Fadeo,5098521158,Cáceres,Colombia
541,Skilith,6506234765,Rokiciny,Poland
542,Shuffledrive,4331793140,Leomil,Portugal
543,Flipopia,7882468757,Créteil,France
544,Babblestorm,3684501727,As Saddah,Yemen
545,Flashset,2088687381,Wuluo,China
546,Skajo,8182460908,Glendale,United States
547,Digitube,5944541683,Novo-Peredelkino,Russia
548,Youspan,6857786321,Cajamarca,Peru
549,Gabvine,7584668427,Ergates,Cyprus
550,Youbridge,5553685368,Al Farwaniyah,Kuwait
551,Riffwire,1514878399,Tân An,Vietnam
552,Gabcube,2643356742,Banjar Tengah,Indonesia
553,Rhynoodle,8568171462,Efkarpía,Greece
554,Tazz,9326010820,Caocun,China
555,Zava,6496028025,Tlutup,Indonesia
556,Kaymbo,2637820911,Yunxian Chengguanzhen,China
557,Tazzy,1977721908,Acheng,China
558,Edgeclub,1414414473,Sobreiro,Portugal
559,Gabspot,9401063103,Kalinkavichy,Belarus
560,Realcube,5891942910,Pangnirtung,Canada
561,Feedfish,7995840624,Klumpit,Indonesia
562,Jamia,5551826152,Guia,Portugal
563,Katz,8015577001,Katagum,Nigeria
564,Ainyx,1403708581,Cabrobó,Brazil
565,Photojam,8973853574,Kirs,Russia
566,Browsebug,9194454926,Driyorejo,Indonesia
567,Twimbo,3304888755,Amsterdam,Netherlands
568,Tagcat,3452121622,Orion,Philippines
569,Yabox,3354155862,Sremska Mitrovica,Serbia
570,Brainlounge,7362670547,Bagahanlad,Philippines
571,Youspan,2809739469,Xiaping,China
572,Dynabox,9172754461,San Andrés,Panama
573,Demimbu,4981100073,Tembol,Indonesia
574,Blogspan,5845168046,Mojkovac,Montenegro
575,Camimbo,8859772611,Municipio de Copacabana,Colombia
576,Gabvine,7314174643,Tambak,Philippines
577,Yoveo,6876249515,Jinpanling,China
578,Voomm,8763421101,Samanco,Peru
579,Jetwire,4612651239,Ferreiras,Portugal
580,Kare,8302686191,Oesain,Indonesia
581,Kamba,1444182499,Chum Phuang,Thailand
582,Layo,6064259909,Lipovljani,Croatia
583,Kwilith,1273537686,Sundsvall,Sweden
584,Myworks,4945378616,Abidjan,Ivory Coast
585,Meetz,4163113198,Pantang,China
586,Browseblab,9426109093,Shanhou,China
587,Gigazoom,1375699379,Prachamtakham,Thailand
588,Voomm,3309432258,Youngstown,United States
589,Quamba,3112503269,Shedok,Russia
590,Fatz,1411675094,Banjar Batanpoh,Indonesia
591,Omba,7526865723,Višnova,Czech Republic
592,Tazz,3769118350,Phú L?c,Vietnam
593,Devshare,4453333704,Heqiao,China
594,Quimba,4731048454,Gawul,Indonesia
595,Gabvine,6945888375,Glogovac,Kosovo
596,Myworks,4301059468,Bohou,China
597,Myworks,5957341883,Saint-Laurent-du-Var,France
598,Meezzy,1768729879,Nizhniy Bestyakh,Russia
599,Twiyo,9456391632,Puerto de Nutrias,Venezuela
600,Cogidoo,7658076289,Sucre,Peru
601,Skimia,2527402441,Nubl,Syria
602,Podcat,8056854654,Velas,Portugal
603,Devbug,1063895928,Isugod,Philippines
604,Miboo,8526904034,Šluknov,Czech Republic
605,Ntags,3668741189,Volary,Czech Republic
606,Meezzy,6511184909,Morje,Slovenia
607,Voonix,1245794395,Olinda,Brazil
608,Meevee,7184899323,Baru Timur,Indonesia
609,Wordify,4855316542,Novovorontsovka,Ukraine
610,Realfire,3286883437,Stobrec,Croatia
611,Snaptags,9981060876,Göteborg,Sweden
612,Plajo,9745453841,Peresvet,Russia
613,Realfire,3675352541,Chitré,Panama
614,Skalith,6321593097,Haodian,China
615,Trudoo,3368910175,Caxias do Sul,Brazil
616,Tagpad,1871973161,Sosnovka,Russia
617,Yodoo,6999868513,Sofo-Birnin-Gwari,Nigeria
618,Quinu,6291301872,Hayan Hudong,China
619,Wikivu,9802276986,Tembau,Indonesia
620,Thoughtworks,9936827234,Donji Dobric,Serbia
621,Gigashots,4682200143,Beaufort West,South Africa
622,Divape,2354656481,Niujiang,China
623,Skyba,8296053693,Gayle,Jamaica
624,Meemm,3592104271,Chengguan,China
625,Realblab,5009046214,Qarqania,Syria
626,Jaloo,3922993228,Castelo,Portugal
627,Rhycero,3108624513,San Kamphaeng,Thailand
628,LiveZ,1359606890,Abengourou,Ivory Coast
629,Ozu,3894471939,Nara-shi,Japan
630,Realblab,8918890191,Sinacaban,Philippines
631,Edgeclub,1829339828,Ubajami,Indonesia
632,Brainlounge,2266753351,Selaparang Timur,Indonesia
633,Ozu,5868186268,Cicevac,Serbia
634,Npath,4862415053,Linxia Chengguanzhen,China
635,Jetpulse,5379339490,Apeldoorn,Netherlands
636,Yoveo,5479615231,Dalianhe,China
637,Feedfire,4663001479,Stockholm,Sweden
638,Rhynyx,9899691847,Yenangyaung,Myanmar
639,Vidoo,2445553819,Huiwen,China
640,Oodoo,8084485404,Honolulu,United States
641,Mita,8701406227,Novi Itebej,Serbia
642,Avaveo,7253314424,Sobral,Brazil
643,Jayo,2543390729,Imus,Philippines
644,Dabtype,1049397482,Sigma,Philippines
645,Omba,9171919065,Yangdun,China
646,Fatz,3041273456,Hamburg,Germany
647,Ailane,9072012340,Pakxé,Laos
648,Centimia,6408138674,Hodošan,Croatia
649,Mynte,5039706797,Grebnevo,Russia
650,Twitternation,6253502734,Corbeil-Essonnes,France
651,Yabox,5903549542,Tabalong,Philippines
652,Twitterbeat,1665876837,Camaquã,Brazil
653,Avamm,6423466810,Sarangmeduro,Indonesia
654,Devcast,2535304921,Sarrebourg,France
655,Youbridge,4039130190,Ararat,Armenia
656,Blogtags,2299516033,Sukamaju,Indonesia
657,Chatterpoint,8959503335,Weifen,China
658,Linktype,4466093289,Harbin,China
659,Jetwire,9188678707,Ljukovo,Serbia
660,Voonte,8254853699,Hajoho,Comoros
661,Skinix,2274021389,Imbituva,Brazil
662,Centizu,3495103411,Mayanhe,China
663,Thoughtsphere,4773625346,Yumbe,Uganda
664,Avamba,1538523146,Kediri,Indonesia
665,Quatz,8938700179,Charagua,Bolivia
666,Thoughtsphere,4825764223,Daxing,China
667,Skyvu,3173289232,Ogod,Philippines
668,Zoombox,7424200303,Mendes,Brazil
669,Devbug,7157762735,Zuhu,China
670,Vinte,5233242236,Wuning,China
671,Dynazzy,5674489182,Seseng,Indonesia
672,Thoughtbeat,3546917591,Concepción de La Vega,Dominican Republic
673,Gigabox,7862081522,Miami,United States
674,Jabberbean,1956609738,Taurage,Lithuania
675,Topicware,9915689983,Joconal,Honduras
676,Ailane,8761553685,Yuanshanzi,China
677,Edgeify,5536079141,El’brus,Russia
678,Yacero,9883817913,Victoria,Philippines
679,Lazz,5637736888,Starokucherganovka,Russia
680,Cogilith,2521737385,Guchang,China
681,Jetwire,1154545996,Dalai,China
682,Jaloo,1376969958,Stony Hill,Jamaica
683,Dabtype,9476965284,Yijiang,China
684,Babblestorm,9929255381,Chusovoy,Russia
685,Katz,3481817884,Xihongmen,China
686,Gigazoom,1465854634,Bagumbayan,Philippines
687,Trilia,4789451685,Beizhakou,China
688,Centimia,6339858820,Tân Phú,Vietnam
689,Yombu,2783616594,Hadayang,China
690,Podcat,8105376118,Koatas Lao,Indonesia
691,Jatri,9598558176,Mvomero,Tanzania
692,Realcube,9075165138,Masakin,Tunisia
693,Tagopia,8669589077,Luotang,China
694,Skippad,3852970461,Antang,China
695,Divavu,6608781927,Mrkonjic Grad,Bosnia and Herzegovina
696,Tazzy,8512192431,Katsina-Ala,Nigeria
697,Yodo,1415008895,Halteu,Indonesia
698,Zoomdog,8055665731,Santa Paz,Philippines
699,Linkbuzz,1792283258,Botou,China
700,Rhynyx,8798530161,Shuitianhe,China
701,Skinder,8595920054,Kairouan,Tunisia
702,Vimbo,4517479038,Xichuan,China
703,Babbleblab,8309440280,Avignon,France
704,Flipopia,9998338238,Kandava,Latvia
705,Minyx,3553982303,Paris 19,France
706,Rooxo,9813167482,Sann,Pakistan
707,Ntag,8194601473,Fatufeto,Indonesia
708,Wikibox,9816344982,Tlumacov,Czech Republic
709,Aimbu,8768886822,Sobreira,Portugal
710,Skipstorm,1789465706,Bulqizë,Albania
711,Fivespan,9994498100,Hetou,China
712,Zoonoodle,7441147623,Santo Antônio do Monte,Brazil
713,Feednation,6317820583,Paulba,Philippines
714,Eimbee,7416162287,Santa Catalina,Venezuela
715,Devify,5187151055,Baoquanshan,China
716,Skinder,8211061344,Nizhniy Dzhengutay,Russia
717,Realbuzz,8852721879,Zhendong,China
718,Skivee,7568068566,Pueblo Nuevo,Panama
719,Camido,7548133433,Dalong,Indonesia
720,Ntag,2294107454,Huidong,China
721,Buzzdog,8606929059,Xueshan,China
722,Blogspan,9194734393,San Marcos,Colombia
723,Tavu,3276098799,Igede-Ekiti,Nigeria
724,Skinder,9837068688,Puerto Bello,Philippines
725,Avamm,9045378907,Saint Augustine,United States
726,Bubblemix,5991874771,Woken,China
727,Ooba,9412460374,Punta Gorda,United States
728,Latz,7369344280,Narutocho-mitsuishi,Japan
729,Browsedrive,6558936037,Qiaolin,China
730,Meembee,7014428792,San Cristóbal Cucho,Guatemala
731,Fivechat,9269758441,Nagarpur,Bangladesh
732,Browsebug,8114975492,Somié,Cameroon
733,Realcube,6077925169,Numata,Japan
734,Wikizz,5936802253,Paris 16,France
735,Meejo,8921498469,Angol,Chile
736,Mita,6098375348,Unidad,Philippines
737,Bluezoom,3962722854,Yero?am,Israel
738,Eayo,6971738956,Pyinmana,Myanmar
739,Buzzdog,5575173644,Fukumitsu,Japan
740,Twinte,9036189419,Pasirangin Tiga,Indonesia
741,Dynabox,8574012397,La Sebala du Mornag,Tunisia
742,Yakijo,6422895832,Uva,Russia
743,Blognation,1953265598,Novosil’,Russia
744,Flashdog,1176348633,Abade de Neiva,Portugal
745,Kwideo,1081214190,Independencia,Mexico
746,Flipstorm,9582738913,Khalilabad,Iran
747,Flashset,3699776216,Huyuan,China
748,Brainbox,1899630578,Hanting,China
749,Eayo,7215138447,Vostok,Russia
750,Meejo,6045089253,Pankshin,Nigeria
751,Shufflebeat,1727143283,Bantawora,Indonesia
752,Eimbee,3011569619,Taraz,Kazakhstan
753,Twinder,5348961624,Tinaquillo,Venezuela
754,Npath,4808309162,Kigoma,Tanzania
755,Izio,2635703391,Itaí,Brazil
756,Photobug,5935528284,Longfeng,China
757,Yata,7488906676,Jiaoshanhe,China
758,Blogtags,5649630718,Pamiatkowo,Poland
759,Quimm,7277384263,Brezová nad Svitavou,Czech Republic
760,Skyba,5587000544,Aguachica,Colombia
761,Wikizz,7407030322,Mompós,Colombia
762,Jaxbean,8017493749,Vilani,Latvia
763,Jayo,2077865602,Guji,China
764,Tagtune,7428786326,Kristinehamn,Sweden
765,Skalith,6488427262,Yushugou,China
766,Youtags,2386889366,Batang,Indonesia
767,Mudo,7864252482,Eira Nova,Portugal
768,Kazio,4542984233,Kijang,South Korea
769,Zoovu,9428568479,Ituzaingó,Argentina
770,Realbridge,8551361971,Port-aux-Français,French Southern Territories
771,Thoughtstorm,3634384361,Ambar,Peru
772,Brightbean,2026844682,Vyshhorod,Ukraine
773,Abatz,2656470996,Amnat Charoen,Thailand
774,Plajo,9327275119,Alor Setar,Malaysia
775,Jabberbean,5533550684,Tonosho,Japan
776,Livetube,5083387960,Fengjia,China
777,Demimbu,5299249933,Novaya Chigla,Russia
778,Brightbean,6371719850,Kalá Déndra,Greece
779,Yodoo,1946766029,Mattaldi,Argentina
780,Twinder,9949047864,Eldoret,Kenya
781,Quinu,3194814863,Shuyuan,China
782,Rooxo,9128651118,Thomazeau,Haiti
783,Ozu,9026350018,Tenancingo,El Salvador
784,Jamia,6138906730,Saraburi,Thailand
785,Ntag,3168147183,Kyzyl-Kyya,Kyrgyzstan
786,Photobean,6537960744,Pereslavl’-Zalesskiy,Russia
787,Tagpad,7941948511,Sanbao,China
788,Blogtags,4132140317,Kotabaru,Indonesia
789,Demivee,2439911501,Ochobo,Nigeria
790,Einti,4627605328,Gunungsari,Indonesia
791,Kaymbo,1068137420,Xai-Xai,Mozambique
792,Buzzdog,1875040419,Semikarakorsk,Russia
793,Minyx,8122151845,Huangshui,China
794,Skinte,6587681441,Alor Setar,Malaysia
795,Shuffletag,1603576231,San Pedro Apartado,Philippines
796,Ntags,5462507725,Camp Thorel,Mauritius
797,Topdrive,2421650951,Huancabamba,Peru
798,Blogpad,3923461716,Ostankinskiy,Russia
799,Wikido,4101934803,Soutocico,Portugal
800,Mita,7215292180,Rybno,Poland
801,Jaloo,2249787558,Gaotieling,China
802,Dablist,3855917851,La Roche-sur-Yon,France
803,Mybuzz,4924519371,Orekhovo-Borisovo Severnoye,Russia
804,Mudo,3033826326,Waru,Indonesia
805,Devpulse,2812119055,Koltubanovskiy,Russia
806,Buzzdog,7013856322,Mesto Albrechtice,Czech Republic
807,Photofeed,6776524733,Wolomoni,Indonesia
808,Fivespan,2729130823,Ban Khlong Bang Sao Thong,Thailand
809,Blogtags,9001194721,Bangus Kulon,Indonesia
810,Browseblab,9112247966,Gaopi,China
811,Avamba,2129134158,Na Wa,Thailand
812,Agimba,9052828338,Huakoulongtan,China
813,Oyoyo,8773407799,Dampit Satu,Indonesia
814,Thoughtsphere,5184188384,Dedenëvo,Russia
815,Voonte,1487700844,Jingchuan Chengguanzhen,China
816,Mynte,5857220050,Ribas,Portugal
817,Cogibox,4275321210,Spas’ke,Ukraine
818,Mydeo,4279253932,Tierp,Sweden
819,Kimia,3492571665,Kruisfontein,South Africa
820,Oloo,2189739259,Butel,Macedonia
821,Thoughtworks,3026575025,Tríkeri,Greece
822,Yata,1513841259,Chigan,China
823,Brainverse,9028069202,Lingion,Philippines
824,Fanoodle,8039754735,Bandungsari,Indonesia
825,Zoomzone,5092626876,Escuintla,Guatemala
826,Quamba,4636716356,La Paz,Argentina
827,Aivee,8147354681,Tit Mellil,Morocco
828,Kwinu,5929554219,Kelungkung,Indonesia
829,Centizu,3291992277,Novopodrezkovo,Russia
830,Mydeo,4742252247,Crossmolina,Ireland
831,Quamba,8547835192,Mumen,China
832,Kwilith,4781091812,Biasong,Philippines
833,Quatz,3883240341,Budanovci,Serbia
834,Avamba,9529593059,Bayang,Philippines
835,Mycat,1385391922,Huxingshan,China
836,Skajo,6538047009,Rungis,France
837,Yodel,5007915335,Mikró Monastíri,Greece
838,Gabtune,2113728368,Jaboticabal,Brazil
839,Voonte,1981891535,Fukuchiyama,Japan
840,Thoughtmix,4354577600,Fengzhou,China
841,Flashdog,5916189430,Campoverde,Peru
842,Mudo,5784918993,Backi Petrovac,Serbia
843,Geba,9806037813,Laohugang,China
844,Riffwire,8221012780,Sinisian,Philippines
845,Geba,3301037260,Klutuk,Indonesia
846,Youfeed,6955287021,Binangun,Indonesia
847,Linklinks,6967190308,Wuhao,China
848,Thoughtsphere,3673812842,Datangzhuang,China
849,Brightdog,2742088901,E? ?aiyiba,Israel
850,Realfire,7957438676,Wuchagou,China
851,Edgewire,1342370250,Sentieiras,Portugal
852,Tagfeed,3039980987,Yongfeng,China
853,Zoomzone,2944472794,Saint-Brieuc,France
854,Vidoo,9631706749,Sundsvall,Sweden
855,Oyoba,5433954796,Reshui,China
856,Mymm,7314789634,Ipoh,Malaysia
857,Buzzdog,9789881898,Maodian,China
858,Leenti,2867699373,Den Chai,Thailand
859,Edgeblab,3546971412,Bantarpanjang,Indonesia
860,Muxo,4339114937,Hongor,Mongolia
861,LiveZ,9324789929,Naudero,Pakistan
862,Agivu,9186262644,Balud,Philippines
863,Topiczoom,5216744277,Krynychky,Ukraine
864,Yodoo,3369331903,Lutowiska,Poland
865,Livefish,1579758965,Antang,China
866,Jaxnation,9735096189,Paterson,United States
867,Tazz,5713077667,Arlington,United States
868,Skalith,5043281204,Tønsberg,Norway
869,Linklinks,9644065808,Ariguaní,Colombia
870,Topicstorm,3258359622,Palestina,Colombia
871,Yotz,3479539483,Rîscani,Moldova
872,Thoughtbridge,3388853010,Banjar Jambe Baleran,Indonesia
873,Brainsphere,5212873528,Bendosari,Indonesia
874,Centimia,8952927490,Tours,France
875,Leenti,3394627030,Lyubymivka,Ukraine
876,Centidel,4141484335,Milwaukee,United States
877,Mybuzz,8306798642,Chaplygin,Russia
878,Bubblebox,6881287495,Tunoshna,Russia
879,Skibox,4832895029,Gujo,Japan
880,Brightdog,4351373662,Kristiansand S,Norway
881,Innojam,8423328639,Örebro,Sweden
882,Layo,3254571402,Kalianda,Indonesia
883,Kaymbo,3217897185,Raksajaya,Indonesia
884,Oyonder,1384237372,Ifakara,Tanzania
885,Feedspan,2889867222,Forécariah,Guinea
886,Eayo,6392576248,Pom Prap Sattru Phai,Thailand
887,Flipopia,2963335270,Rio de Mouro,Portugal
888,Tanoodle,4257951053,Pokotylivka,Ukraine
889,Edgetag,9833284922,Minh Luong,Vietnam
890,Jabbertype,1607903688,Juigalpa,Nicaragua
891,Kimia,5658895003,Keffin Hausa,Nigeria
892,Centidel,4041828491,Shitan,China
893,Jazzy,6079817795,Xiadingjia,China
894,Browsebug,7311899084,Huayucachi,Peru
895,Zooveo,1252907353,Haodian,China
896,Quinu,8552415806,Lechinkay,Russia
897,Shufflebeat,8743722483,Xinkai,China
898,Jamia,3003957431,Aianí,Greece
899,Flipopia,5233827356,Summerland,Canada
900,Geba,8854966610,Uchaly,Russia
901,Camimbo,9514976839,Salvacion,Philippines
902,Rhynoodle,6743832480,Sedinginan,Indonesia
903,Browsecat,3552253273,Famatina,Argentina
904,Mycat,1449139185,Paris 04,France
905,Skyble,1574488474,Nanshao,China
906,Meedoo,9899188634,Dajalorong,Indonesia
907,Meetz,2749532502,Bahawalpur,Pakistan
908,Shuffledrive,7084860138,Barueri,Brazil
909,Gabtype,5398484727,Kebonjaya,Indonesia
910,Abatz,6507525094,Luzhou,China
911,Yakitri,4531802460,Farah,Afghanistan
912,Dabvine,9322409979,Pital,Colombia
913,Zazio,4987230625,Szydlowo,Poland
914,LiveZ,4452848329,Navashino,Russia
915,Leenti,4303635000,Göteborg,Sweden
916,Talane,4199837287,Leping,China
917,Linkbuzz,3184185957,Siemiatycze,Poland
918,Kamba,3092942191,Tongtuan,China
919,Vinte,1743122862,Santa Maria,Mexico
920,Einti,8848607427,Padangtepung,Indonesia
921,Meedoo,3467624961,Orurillo,Peru
922,Katz,3206582915,Keti Bandar,Pakistan
923,Oyonder,1342168466,Arroio do Meio,Brazil
924,Rhyloo,8159348456,Nantes,France
925,Chatterpoint,6598033543,Zhangtan,China
926,Dynabox,5204666957,Loucná nad Desnou,Czech Republic
927,Linktype,4459259297,Sarrebourg,France
928,Twitterwire,4813437922,Pacanga,Peru
929,Feedfish,9625693895,Turgenevo,Russia
930,Fivechat,6694246583,Nabunturan,Philippines
931,Aivee,3922710418,Gyangqai,China
932,Meezzy,1708509722,Kwangyang,South Korea
933,Livetube,3401098663,Songqiao,China
934,Meeveo,5119093680,Settat,Morocco
935,Tagtune,7057287907,Miroslawiec,Poland
936,Fliptune,5181477936,Xufeng,China
937,Camimbo,6192708353,Aleksandrovka,Ukraine
938,Meevee,1442051515,Przemków,Poland
939,Tagfeed,2558032680,La Goulette,Tunisia
940,Meezzy,2384217773,Beylagan,Azerbaijan
941,Jabbersphere,6764201241,Guilin,China
942,Meevee,8288608604,Dongji,China
943,Skimia,5863389616,Belfast,Canada
944,Jaxworks,3634466283,Shuihu,China
945,Devify,1953076747,Yinglan,China
946,Youopia,7223025411,Karangmangu,Indonesia
947,Blogtag,4635750551,San Juan Ermita,Guatemala
948,Bubblebox,2288917828,Mambago,Philippines
949,Zooxo,6111010447,Gabrovo,Bulgaria
950,Reallinks,3995892517,Pingxiang,China
951,Kanoodle,3619408726,Aktsyabrski,Belarus
952,Janyx,9535421953,Lérida,Colombia
953,Kwilith,6088001185,Casa Branca,Brazil
954,Livetube,8413068628,El Retiro,Colombia
955,Roodel,7139049726,Anaco,Venezuela
956,Dabvine,1326864842,Uppsala,Sweden
957,Skaboo,2203667314,Jega,Nigeria
958,Brainsphere,5351781253,Goiatuba,Brazil
959,Twiyo,2596589835,Bisert’,Russia
960,Wikibox,4263645260,Novosmolinskiy,Russia
961,Divavu,3589043280,Zhovti Vody,Ukraine
962,Geba,5644201541,Mishima,Japan
963,Demizz,8909473988,Sharga,Mongolia
964,Zoonder,2163785869,Lidzbark,Poland
965,Skyndu,8835600876,Niimi,Japan
966,Flipbug,9321547012,Leskovac,Serbia
967,Meedoo,8504096977,Krasae Sin,Thailand
968,Cogibox,8644396593,Zhaocun,China
969,Skiba,4299600311,Ngou,Cameroon
970,Fivebridge,4595085702,Arteche,Philippines
971,Quinu,8052850835,Santa Barbara,United States
972,Vimbo,3621330459,Krasnosilka,Ukraine
973,Rhybox,2401264279,Hagerstown,United States
974,Livetube,5535299987,Três Pontas,Brazil
975,Twinder,8423479524,Bolong,Philippines
976,Twinder,1041798000,Al Ma?wit,Yemen
977,Realbridge,4752417915,Dizangué,Cameroon
978,Skynoodle,3622616936,Bayanhongor,Mongolia
979,Kaymbo,8894189285,Xiaqiao,China
980,Wordtune,9158399327,Lazarat,Albania
981,Rooxo,4328066287,Midland,United States
982,Omba,8043449712,Capulaan,Philippines
983,Voolith,4428121040,Zapala,Argentina
984,Rhynyx,9445316904,Ndendé,Gabon
985,Kaymbo,3651872654,Oslo,Norway
986,Bluejam,5315860203,Yamoto,Japan
987,Linkbuzz,4459859305,Bissen,Luxembourg
988,Twinte,9873288653,Hoboksar,China
989,Eidel,6142370515,Columbus,United States
990,Trudeo,9917102918,Heqing,China
991,Thoughtworks,3971661523,Qianjia,China
992,Meetz,4158585784,Yiyang,China
993,Tagfeed,1915958654,Tekeli,Kazakhstan
994,Eazzy,6286575556,Rambatan,Indonesia
995,Quatz,9854440289,Bilshivtsi,Ukraine
996,Zoomzone,2724562180,Kissidougou,Guinea
997,Kamba,5246869052,Hutou,China
998,Twimm,4724428730,Lélouma,Guinea
999,Leexo,7327613699,Barang,Indonesia
1000,Jabbersphere,3128503476,Chicago,United States
